NORAD_CAT_ID,OBJECT_NAME,OBJECT_TYPE,EPOCH,MEAN_MOTION,ECCENTRICITY,INCLINATION,RA_OF_ASC_NODE,ARG_OF_PERICENTER,MEAN_ANOMALY,BSTAR,MEAN_MOTION_DOT,MEAN_MOTION_DDOT,TLE_LINE0,TLE_LINE1,TLE_LINE2,SEMIMAJOR_AXIS,PERIOD,APOGEE,PERIGEE,DECAYED
52125.0,STARLINK-3727,PAYLOAD,2022-11-04 00:34:47,15.08919065,0.0001826,53.2158,153.3814,53.017,307.0989,-0.0008191,-0.00013329,0.0,0 STARLINK-3727,1 52125U 22029AP  22308.02416421 -.00013329  00000-0 -81910-3 0  9997,2 52125  53.2158 153.3814 0001826  53.0170 307.0989 15.08919065 36503,6917.639,95.433,540.7669999999998,538.241,0.0
52125.0,STARLINK-3727,PAYLOAD,2022-11-04 06:56:22,15.08854999,0.0001692,53.2159,152.1921,58.3073,301.8084,0.00020793,3.024e-05,0.0,0 STARLINK-3727,1 52125U 22029AP  22308.28914585  .00003024  00000-0  20793-3 0  9990,2 52125  53.2159 152.1921 0001692  58.3073 301.8084 15.08854999 36547,6917.835,95.437,540.87,538.529,0.0
52125.0,STARLINK-3727,PAYLOAD,2022-11-04 13:17:55,15.08852736,0.0002199,53.2157,151.0025,64.0259,296.096,0.00018005,2.579e-05,0.0,0 STARLINK-3727,1 52125U 22029AP  22308.55410915  .00002579  00000-0  18005-3 0  9995,2 52125  53.2157 151.0025 0002199  64.0259 296.0960 15.08852736 36580,6917.840999999999,95.437,541.2280000000002,538.185,0.0
52125.0,STARLINK-3727,PAYLOAD,2022-11-04 16:28:41,15.08839958,0.0001657,53.2148,150.4076,60.4434,299.6723,0.00013205,1.814e-05,0.0,0 STARLINK-3727,1 52125U 22029AP  22308.68659671  .00001814  00000-0  13205-3 0  9991,2 52125  53.2148 150.4076 0001657  60.4434 299.6723 15.08839958 36602,6917.880999999999,95.438,540.8919999999998,538.599,0.0
52125.0,STARLINK-3727,PAYLOAD,2022-11-05 06:47:10,15.08840486,0.000162,53.2149,147.7314,59.1974,300.9178,4.583e-05,4.41e-06,0.0,0 STARLINK-3727,1 52125U 22029AP  22309.28275647  .00000441  00000-0  45830-4 0  9990,2 52125  53.2149 147.7314 0001620  59.1974 300.9178 15.08840486 36698,6917.879,95.438,540.865,538.623,0.0
52125.0,STARLINK-3727,PAYLOAD,2022-11-05 19:30:16,15.08833242,0.0001745,53.2182,145.3533,62.9029,297.2141,-3.2447e-05,-8.04e-06,0.0,0 STARLINK-3727,1 52125U 22029AP  22309.81268681 -.00000804  00000-0 -32447-4 0  9994,2 52125  53.2182 145.3533 0001745  62.9029 297.2141 15.08833242 36772,6917.901,95.438,540.9730000000002,538.559,0.0
52125.0,STARLINK-3727,PAYLOAD,2022-11-06 00:16:25,15.08836282,0.0001654,53.2157,144.4601,60.3404,299.7753,-7.7944e-05,-1.528e-05,0.0,0 STARLINK-3727,1 52125U 22029AP  22310.01140642 -.00001528  00000-0 -77944-4 0  9999,2 52125  53.2157 144.4601 0001654  60.3404 299.7753 15.08836282 36805,6917.892,95.438,540.901,538.613,0.0
52125.0,STARLINK-3727,PAYLOAD,2022-11-07 00:07:12,15.08836107,0.0001649,53.216,139.9993,62.5268,297.5891,6.8734e-05,8.06e-06,0.0,0 STARLINK-3727,1 52125U 22029AP  22311.00500482  .00000806  00000-0  68734-4 0  9994,2 52125  53.2160 139.9993 0001649  62.5268 297.5891 15.08836107 36959,6917.892,95.438,540.898,538.617,0.0
52125.0,STARLINK-3727,PAYLOAD,2022-11-07 14:25:40,15.08837038,0.0001626,53.2159,137.3232,60.3158,299.7996,0.00020843,3.03e-05,0.0,0 STARLINK-3727,1 52125U 22029AP  22311.60116368  .00003030  00000-0  20843-3 0  9996,2 52125  53.2159 137.3232 0001626  60.3158 299.7996 15.08837038 37049,6917.889,95.438,540.879,538.63,0.0
52125.0,STARLINK-3727,PAYLOAD,2022-11-08 19:02:36,15.08845713,0.0001657,53.2159,131.9706,60.7271,299.3887,0.00011995,1.622e-05,0.0,0 STARLINK-3727,1 52125U 22029AP  22312.79347995  .00001622  00000-0  11995-3 0  9992,2 52125  53.2159 131.9706 0001657  60.7271 299.3887 15.08845713 37223,6917.863,95.437,540.874,538.582,0.0
52125.0,STARLINK-3727,PAYLOAD,2022-11-09 14:07:14,15.08832445,0.0001966,53.2244,128.41,337.9417,22.149,-0.00020983,-3.625e-05,0.0,0 STARLINK-3727,1 52125U 22029AP  22313.58836198 -.00003625  00000-0 -20983-3 0  9992,2 52125  53.2244 128.4100 0001966 337.9417  22.1490 15.08832445 37344,6917.903,95.438,541.129,538.408,0.0
52125.0,STARLINK-3727,PAYLOAD,2022-11-09 18:53:24,15.0882505,0.0004194,53.2276,127.5144,305.2178,54.8421,-0.00024678,-4.214e-05,0.0,0 STARLINK-3727,1 52125U 22029AP  22313.78708758 -.00004214  00000-0 -24678-3 0  9994,2 52125  53.2276 127.5144 0004194 305.2178  54.8421 15.08825050 37378,6917.926,95.439,542.692,536.89,0.0
52125.0,STARLINK-3727,PAYLOAD,2022-11-10 04:25:43,15.08828178,0.0001138,53.2164,125.7252,34.8902,325.2164,-5.9699e-05,-1.237e-05,0.0,0 STARLINK-3727,1 52125U 22029AP  22314.18453191 -.00001237  00000-0 -59699-4 0  9991,2 52125  53.2164 125.7252 0001138  34.8902 325.2164 15.08828178 37439,6917.917,95.438,540.569,538.994,0.0
52125.0,STARLINK-3727,PAYLOAD,2022-11-10 18:44:12,15.08829273,0.000132,53.216,123.0491,47.7389,312.3715,-4.5862e-05,-1.017e-05,0.0,0 STARLINK-3727,1 52125U 22029AP  22314.78069536 -.00001017  00000-0 -45862-4 0  9996,2 52125  53.2160 123.0491 0001320  47.7389 312.3715 15.08829273 37522,6917.913000000001,95.438,540.691,538.865,0.0
52125.0,STARLINK-3727,PAYLOAD,2022-11-10 20:19:35,15.0883073,0.0001509,53.216,122.7521,57.2577,302.856,-3.4529e-05,-8.37e-06,0.0,0 STARLINK-3727,1 52125U 22029AP  22314.84693505 -.00000837  00000-0 -34529-4 0  9999,2 52125  53.2160 122.7521 0001509  57.2577 302.8560 15.08830730 37539,6917.909000000002,95.438,540.818,538.73,0.0
52125.0,STARLINK-3727,PAYLOAD,2022-11-11 10:38:01,15.08887314,0.0001504,53.2162,120.0754,42.504,317.6068,-0.00083126,-0.0001351,0.0,0 STARLINK-3727,1 52125U 22029AP  22315.44307266 -.00013510  00000-0 -83126-3 0  9990,2 52125  53.2162 120.0754 0001504  42.5040 317.6068 15.08887314 37624,6917.736,95.435,540.641,538.56,0.0
52125.0,STARLINK-3727,PAYLOAD,2022-11-11 18:34:59,15.08827279,0.0001429,53.2162,118.5889,53.9857,306.1268,0.00023139,3.395e-05,0.0,0 STARLINK-3727,1 52125U 22029AP  22315.77429865  .00003395  00000-0  23139-3 0  9992,2 52125  53.2162 118.5889 0001429  53.9857 306.1268 15.08827279 37677,6917.919,95.438,540.773,538.7959999999998,0.0
52125.0,STARLINK-3727,PAYLOAD,2022-11-11 20:10:22,15.0883027,0.000148,53.2152,118.2912,52.4841,307.6285,0.00026157,3.876e-05,0.0,0 STARLINK-3727,1 52125U 22029AP  22315.84053926  .00003876  00000-0  26157-3 0  9998,2 52125  53.2152 118.2912 0001480  52.4841 307.6285 15.08830270 37685,6917.91,95.438,540.799,538.751,0.0
52125.0,STARLINK-3727,PAYLOAD,2022-11-12 10:28:50,15.08843492,0.0001477,53.215,115.6147,52.9478,307.1649,0.00036578,5.539e-05,0.0,0 STARLINK-3727,1 52125U 22029AP  22316.43669709  .00005539  00000-0  36578-3 0  9992,2 52125  53.2150 115.6147 0001477  52.9478 307.1649 15.08843492 37770,6917.87,95.437,540.756,538.7130000000002,0.0
52125.0,STARLINK-3727,PAYLOAD,2022-11-12 13:39:36,15.08847232,0.0001486999999999,53.215,115.0201,52.8168,307.296,0.00040708,6.198e-05,0.0,0 STARLINK-3727,1 52125U 22029AP  22316.56917566  .00006198  00000-0  40708-3 0  9995,2 52125  53.2150 115.0201 0001487  52.8168 307.2960 15.08847232 37796,6917.858,95.437,540.752,538.695,0.0
52125.0,STARLINK-3727,PAYLOAD,2022-11-12 18:25:45,15.08875224,0.0001579,53.2151,114.128,53.8484,306.2654,0.0009632,0.00015089,0.0,0 STARLINK-3727,1 52125U 22029AP  22316.76788548  .00015089  00000-0  96320-3 0  9993,2 52125  53.2151 114.1280 0001579  53.8484 306.2654 15.08875224 37823,6917.773,95.435,540.73,538.545,0.0
52125.0,STARLINK-3727,PAYLOAD,2022-11-12 20:01:08,15.08868832,0.0001594,53.2162,113.8327,54.6948,305.4193,0.00075568,0.00011769,0.0,0 STARLINK-3727,1 52125U 22029AP  22316.83412632  .00011769  00000-0  75568-3 0  9991,2 52125  53.2162 113.8327 0001594  54.6948 305.4193 15.08868832 37831,6917.792,95.436,540.76,538.555,0.0
52125.0,STARLINK-3727,PAYLOAD,2022-11-13 03:58:04,15.08855868,0.0001688,53.2153,112.3444,54.7039,305.4111,0.00032915,4.957e-05,0.0,0 STARLINK-3727,1 52125U 22029AP  22317.16532789  .00004957  00000-0  32915-3 0  9994,2 52125  53.2153 112.3444 0001688  54.7039 305.4111 15.08855868 37881,6917.831999999999,95.437,540.865,538.529,0.0
52125.0,STARLINK-3727,PAYLOAD,2022-11-13 10:19:36,15.08853973,0.0001845,53.215,111.1545,59.7673,300.3502,0.00021655,3.161e-05,0.0,0 STARLINK-3727,1 52125U 22029AP  22317.43028711  .00003161  00000-0  21655-3 0  9994,2 52125  53.2150 111.1545 0001845  59.7673 300.3502 15.08853973 37929,6917.8380000000025,95.437,540.979,538.4259999999998,0.0
52125.0,STARLINK-3727,PAYLOAD,2022-11-13 18:16:32,15.08846499,0.0001631999999999,53.2159,109.6677,56.5941,303.5207,4.1423e-05,3.71e-06,0.0,0 STARLINK-3727,1 52125U 22029AP  22317.76148748  .00000371  00000-0  41423-4 0  9999,2 52125  53.2159 109.6677 0001632  56.5941 303.5207 15.08846499 37970,6917.861,95.437,540.855,538.597,0.0
52125.0,STARLINK-3727,PAYLOAD,2022-11-14 03:48:51,15.08850383,0.0001626999999999,53.2161,107.8834,56.5862,303.5286,0.00010416,1.371e-05,0.0,0 STARLINK-3727,1 52125U 22029AP  22318.15892453  .00001371  00000-0  10416-3 0  9990,2 52125  53.2161 107.8834 0001627  56.5862 303.5286 15.08850383 38036,6917.849,95.437,540.839,538.5880000000002,0.0
52125.0,STARLINK-3727,PAYLOAD,2022-11-14 16:31:56,15.08844297,0.0001591,53.2168,105.5044,55.1754,304.9388,-5.6745e-05,-1.191e-05,0.0,0 STARLINK-3727,1 52125U 22029AP  22318.68884943 -.00001191  00000-0 -56745-4 0  9991,2 52125  53.2168 105.5044 0001591  55.1754 304.9388 15.08844297 38110,6917.8669999999975,95.437,540.8330000000002,538.632,0.0
52125.0,STARLINK-3727,PAYLOAD,2022-11-15 13:11:57,15.08837386,0.000164,53.2167,101.6386,61.3553,298.7604,1.9427e-05,2.1e-07,0.0,0 STARLINK-3727,1 52125U 22029AP  22319.54996861  .00000021  00000-0  19427-4 0  9995,2 52125  53.2167 101.6386 0001640  61.3553 298.7604 15.08837386 38242,6917.888000000001,95.438,540.888,538.619,0.0
52125.0,STARLINK-3727,PAYLOAD,2022-11-15 17:58:07,15.08831916,0.0001655,53.2168,100.7466,59.2376,300.8779,-1.4631e-05,-5.21e-06,0.0,0 STARLINK-3727,1 52125U 22029AP  22319.74869334 -.00000521  00000-0 -14631-4 0  9990,2 52125  53.2168 100.7466 0001655  59.2376 300.8779 15.08831916 38271,6917.905,95.438,540.915,538.625,0.0
